IRIDIUM 144             
1 43249U 18030A   24246.61586849  .00001102  00000+0  38626-3 0  9990
2 43249  86.4009 203.1165 0002086  89.1624 270.9811 14.34221395336605
IRIDIUM 149             
1 43250U 18030B   24246.41290694  .00000604  00000+0  20868-3 0  9995
2 43250  86.4008 203.1755 0002280  92.6063 267.5394 14.34215265336598
IRIDIUM 157             
1 43251U 18030C   24246.43193407  .00000008  00000+0 -40874-5 0  9992
2 43251  86.4008 203.2065 0002580  87.6316 272.5175 14.34215958336572
IRIDIUM 140             
1 43252U 18030D   24246.59049525  .00000885  00000+0  30886-3 0  9993
2 43252  86.4010 203.1544 0001882  80.7883 279.3526 14.34218190336659
IRIDIUM 145             
1 43253U 18030E   24246.43827578  .00000055  00000+0  12613-4 0  9997
2 43253  86.4007 203.1912 0001947  93.1641 266.9778 14.34216671336560
IRIDIUM 146             
1 43254U 18030F   24246.41924401  .00000539  00000+0  18546-3 0  9996
2 43254  86.4008 203.2138 0002227  87.9355 272.2096 14.34216398336578
IRIDIUM 148             
1 43255U 18030G   24246.59684261  .00000201  00000+0  64858-4 0  9997
2 43255  86.4011 203.1727 0002418  91.3428 268.8045 14.34215877336631
IRIDIUM 142             
1 43256U 18030H   24246.42557071  .00001034  00000+0  36196-3 0  9996
2 43256  86.4007 203.1572 0002046  94.1541 265.9889 14.34229601336576
